{
  "type": "FeatureCollection",
  "features": [
    {
      "type": "Feature",
      "properties": {
        "norad_id": 34760,
        "name": "COSMOS 2251 DEB",
        "group": "cosmos-2251-debris",
        "lat": 48.4148586590359,
        "lon": -24.864011862317028,
        "alt_km": 769.4787650111912,
        "timestamp": "2025-12-04T21:36:16.267027+00:00",
        "meta_object_name": "COSMOS 2251 DEB",
        "meta_object_id": "1993-036AAE",
        "meta_epoch": "2025-12-02T15:48:08.179200",
        "meta_mean_motion": 14.19524364,
        "meta_eccentricity": 0.00962533,
        "meta_inclination": 74.0627,
        "meta_ra_of_asc_node": 320.3503,
        "meta_arg_of_pericenter": 14.8263,
        "meta_mean_anomaly": 104.0636,
        "meta_ephemeris_type": 0,
        "meta_classification_type": "U",
        "meta_norad_cat_id": 34760,
        "meta_element_set_no": 999,
        "meta_rev_at_epoch": 86545,
        "meta_bstar": 0.00087310198,
        "meta_mean_motion_dot": 1.903e-05,
        "meta_mean_motion_ddot": 0,
        "tle_line1": "1 34760U 93036AAE 25336.65842800  .00001903  00000+0  87310-3 0  9997",
        "tle_line2": "2 34760  74.0627 320.3503 0096253  14.8263 104.0636 14.19524364865450"
      },
      "geometry": {
        "type": "Point",
        "coordinates": [
          -24.864011862317028,
          48.4148586590359
        ]
      }
    },
    {
      "type": "Feature",
      "properties": {
        "norad_id": 34761,
        "name": "COSMOS 2251 DEB",
        "group": "cosmos-2251-debris",
        "lat": 9.712155248219815,
        "lon": -165.56916246213285,
        "alt_km": 777.5084903498309,
        "timestamp": "2025-12-04T21:36:16.267037+00:00",
        "meta_object_name": "COSMOS 2251 DEB",
        "meta_object_id": "1993-036AAF",
        "meta_epoch": "2025-12-03T11:25:40.179072",
        "meta_mean_motion": 14.37997313,
        "meta_eccentricity": 0.00360917,
        "meta_inclination": 74.03,
        "meta_ra_of_asc_node": 19.8628,
        "meta_arg_of_pericenter": 56.9515,
        "meta_mean_anomaly": 303.5096,
        "meta_ephemeris_type": 0,
        "meta_classification_type": "U",
        "meta_norad_cat_id": 34761,
        "meta_element_set_no": 999,
        "meta_rev_at_epoch": 87516,
        "meta_bstar": 0.00082876209,
        "meta_mean_motion_dot": 2.5e-05,
        "meta_mean_motion_ddot": 0,
        "tle_line1": "1 34761U 93036AAF 25337.47615948  .00002500  00000+0  82876-3 0  9996",
        "tle_line2": "2 34761  74.0300  19.8628 0036091  56.9515 303.5096 14.37997313875161"
      },
      "geometry": {
        "type": "Point",
        "coordinates": [
          -165.56916246213285,
          9.712155248219815
        ]
      }
    },
    {
      "type": "Feature",
      "properties": {
        "norad_id": 34784,
        "name": "COSMOS 2251 DEB",
        "group": "cosmos-2251-debris",
        "lat": 56.814103062458756,
        "lon": 133.35433501380376,
        "alt_km": 655.0494785526571,
        "timestamp": "2025-12-04T21:36:16.267047+00:00",
        "meta_object_name": "COSMOS 2251 DEB",
        "meta_object_id": "1993-036AAM",
        "meta_epoch": "2025-12-04T06:15:59.050368",
        "meta_mean_motion": 14.60719821,
        "meta_eccentricity": 0.00497309,
        "meta_inclination": 74.0074,
        "meta_ra_of_asc_node": 340.5854,
        "meta_arg_of_pericenter": 152.4273,
        "meta_mean_anomaly": 207.9548,
        "meta_ephemeris_type": 0,
        "meta_classification_type": "U",
        "meta_norad_cat_id": 34784,
        "meta_element_set_no": 999,
        "meta_rev_at_epoch": 88411,
        "meta_bstar": 0.0009638318,
        "meta_mean_motion_dot": 4.754e-05,
        "meta_mean_motion_ddot": 0,
        "tle_line1": "1 34784U 93036AAM 25338.26110012  .00004754  00000+0  96383-3 0  9992",
        "tle_line2": "2 34784  74.0074 340.5854 0049730 152.4273 207.9548 14.60719821884112"
      },
      "geometry": {
        "type": "Point",
        "coordinates": [
          133.35433501380376,
          56.814103062458756
        ]
      }
    },
    {
      "type": "Feature",
      "properties": {
        "norad_id": 34790,
        "name": "COSMOS 2251 DEB",
        "group": "cosmos-2251-debris",
        "lat": -4.148923016002889,
        "lon": 79.01011797219448,
        "alt_km": 865.4667155489042,
        "timestamp": "2025-12-04T21:36:16.267057+00:00",
        "meta_object_name": "COSMOS 2251 DEB",
        "meta_object_id": "1993-036AAT",
        "meta_epoch": "2025-12-02T20:07:24.488832",
        "meta_mean_motion": 14.2457003,
        "meta_eccentricity": 0.01006839,
        "meta_inclination": 74.0549,
        "meta_ra_of_asc_node": 261.5318,
        "meta_arg_of_pericenter": 325.2539,
        "meta_mean_anomaly": 90.5192,
        "meta_ephemeris_type": 0,
        "meta_classification_type": "U",
        "meta_norad_cat_id": 34790,
        "meta_element_set_no": 999,
        "meta_rev_at_epoch": 86432,
        "meta_bstar": 0.0013780227,
        "meta_mean_motion_dot": 3.347e-05,
        "meta_mean_motion_ddot": 0,
        "tle_line1": "1 34790U 93036AAT 25336.83847788  .00003347  00000+0  13780-2 0  9993",
        "tle_line2": "2 34790  74.0549 261.5318 0100683 325.2539  90.5192 14.24570030864322"
      },
      "geometry": {
        "type": "Point",
        "coordinates": [
          79.01011797219448,
          -4.148923016002889
        ]
      }
    },
    {
      "type": "Feature",
      "properties": {
        "norad_id": 34792,
        "name": "COSMOS 2251 DEB",
        "group": "cosmos-2251-debris",
        "lat": -27.939367506061245,
        "lon": 175.84333499163805,
        "alt_km": 706.6265593023318,
        "timestamp": "2025-12-04T21:36:16.267067+00:00",
        "meta_object_name": "COSMOS 2251 DEB",
        "meta_object_id": "1993-036AAV",
        "meta_epoch": "2025-12-04T15:24:02.156832",
        "meta_mean_motion": 14.55854937,
        "meta_eccentricity": 0.00125956,
        "meta_inclination": 74.0173,
        "meta_ra_of_asc_node": 185.0767,
        "meta_arg_of_pericenter": 278.7222,
        "meta_mean_anomaly": 137.8507,
        "meta_ephemeris_type": 0,
        "meta_classification_type": "U",
        "meta_norad_cat_id": 34792,
        "meta_element_set_no": 999,
        "meta_rev_at_epoch": 87532,
        "meta_bstar": 0.0019793447,
        "meta_mean_motion_dot": 8.674e-05,
        "meta_mean_motion_ddot": 0,
        "tle_line1": "1 34792U 93036AAV 25338.64169163  .00008674  00000+0  19793-2 0  9998",
        "tle_line2": "2 34792  74.0173 185.0767 0012595 278.7222 137.8507 14.55854937875322"
      },
      "geometry": {
        "type": "Point",
        "coordinates": [
          175.84333499163805,
          -27.939367506061245
        ]
      }
    },
    {
      "type": "Feature",
      "properties": {
        "norad_id": 34793,
        "name": "COSMOS 2251 DEB",
        "group": "cosmos-2251-debris",
        "lat": -53.269861626054904,
        "lon": 107.45951023403926,
        "alt_km": 805.2683663141925,
        "timestamp": "2025-12-04T21:36:16.267077+00:00",
        "meta_object_name": "COSMOS 2251 DEB",
        "meta_object_id": "1993-036AAW",
        "meta_epoch": "2025-12-04T14:05:30.327648",
        "meta_mean_motion": 14.38623024,
        "meta_eccentricity": 0.00499926,
        "meta_inclination": 74.0028,
        "meta_ra_of_asc_node": 265.4277,
        "meta_arg_of_pericenter": 61.7269,
        "meta_mean_anomaly": 354.0943,
        "meta_ephemeris_type": 0,
        "meta_classification_type": "U",
        "meta_norad_cat_id": 34793,
        "meta_element_set_no": 999,
        "meta_rev_at_epoch": 87213,
        "meta_bstar": 0.00050570247,
        "meta_mean_motion_dot": 1.546e-05,
        "meta_mean_motion_ddot": 0,
        "tle_line1": "1 34793U 93036AAW 25338.58715657  .00001546  00000+0  50570-3 0  9997",
        "tle_line2": "2 34793  74.0028 265.4277 0049992  61.7269 354.0943 14.38623024872138"
      },
      "geometry": {
        "type": "Point",
        "coordinates": [
          107.45951023403926,
          -53.269861626054904
        ]
      }
    },
    {
      "type": "Feature",
      "properties": {
        "norad_id": 34796,
        "name": "COSMOS 2251 DEB",
        "group": "cosmos-2251-debris",
        "lat": 46.35146438808234,
        "lon": -111.4899912452572,
        "alt_km": 705.5374121099449,
        "timestamp": "2025-12-04T21:36:16.267087+00:00",
        "meta_object_name": "COSMOS 2251 DEB",
        "meta_object_id": "1993-036AAZ",
        "meta_epoch": "2025-12-04T16:32:19.644000",
        "meta_mean_motion": 14.48622795,
        "meta_eccentricity": 0.0100109,
        "meta_inclination": 74.0308,
        "meta_ra_of_asc_node": 231.4366,
        "meta_arg_of_pericenter": 335.2768,
        "meta_mean_anomaly": 52.2124,
        "meta_ephemeris_type": 0,
        "meta_classification_type": "U",
        "meta_norad_cat_id": 34796,
        "meta_element_set_no": 999,
        "meta_rev_at_epoch": 87911,
        "meta_bstar": 0.0015827357,
        "meta_mean_motion_dot": 6.321e-05,
        "meta_mean_motion_ddot": 0,
        "tle_line1": "1 34796U 93036AAZ 25338.68911625  .00006321  00000+0  15827-2 0  9995",
        "tle_line2": "2 34796  74.0308 231.4366 0100109 335.2768  52.2124 14.48622795879113"
      },
      "geometry": {
        "type": "Point",
        "coordinates": [
          -111.4899912452572,
          46.35146438808234
        ]
      }
    }
  ]
}